CCSDS_OMM_VERS = 2.0
CREATION_DATE  = 
ORIGINATOR     = 

OBJECT_NAME    = CZ-2C R/B
OBJECT_ID      = 2022-132E
CENTER_NAME    = EARTH
REF_FRAME      = TEME
TIME_SYSTEM    = UTC
MEAN_ELEMENT_THEORY = SGP/SGP4

EPOCH          = 2026-02-25T12:20:20.717952
MEAN_MOTION    = 15.60670990
ECCENTRICITY   = .00205177
INCLINATION    = 97.2971
RA_OF_ASC_NODE = 59.4736
ARG_OF_PERICENTER = 130.1768
MEAN_ANOMALY   = 230.1290

EPHEMERIS_TYPE = 0
CLASSIFICATION_TYPE = U
NORAD_CAT_ID   = 54039
ELEMENT_SET_NO = 999
REV_AT_EPOCH   = 18847
BSTAR          = .42144497E-3
MEAN_MOTION_DOT = .35259E-3
MEAN_MOTION_DDOT = 0

CCSDS_OMM_VERS = 2.0
CREATION_DATE  = 
ORIGINATOR     = 

OBJECT_NAME    = GSLV R/B
OBJECT_ID      = 2022-138AN
CENTER_NAME    = EARTH
REF_FRAME      = TEME
TIME_SYSTEM    = UTC
MEAN_ELEMENT_THEORY = SGP/SGP4

EPOCH          = 2026-02-25T08:27:00.222624
MEAN_MOTION    = 14.96670010
ECCENTRICITY   = .00212818
INCLINATION    = 87.3876
RA_OF_ASC_NODE = 170.4906
ARG_OF_PERICENTER = 190.3310
MEAN_ANOMALY   = 169.7487

EPHEMERIS_TYPE = 0
CLASSIFICATION_TYPE = U
NORAD_CAT_ID   = 54149
ELEMENT_SET_NO = 999
REV_AT_EPOCH   = 18208
BSTAR          = .24195303E-3
MEAN_MOTION_DOT = .28E-4
MEAN_MOTION_DDOT = 0

CCSDS_OMM_VERS = 2.0
CREATION_DATE  = 
ORIGINATOR     = 

OBJECT_NAME    = XRISM
OBJECT_ID      = 2023-137A
CENTER_NAME    = EARTH
REF_FRAME      = TEME
TIME_SYSTEM    = UTC
MEAN_ELEMENT_THEORY = SGP/SGP4

EPOCH          = 2026-02-25T05:23:52.161792
MEAN_MOTION    = 15.11327922
ECCENTRICITY   = .0008312
INCLINATION    = 31.0036
RA_OF_ASC_NODE = 4.2740
ARG_OF_PERICENTER = 274.3508
MEAN_ANOMALY   = 85.6181

EPHEMERIS_TYPE = 0
CLASSIFICATION_TYPE = U
NORAD_CAT_ID   = 57800
ELEMENT_SET_NO = 999
REV_AT_EPOCH   = 13590
BSTAR          = .33819E-3
MEAN_MOTION_DOT = .5943E-4
MEAN_MOTION_DDOT = 0

CCSDS_OMM_VERS = 2.0
CREATION_DATE  = 
ORIGINATOR     = 

OBJECT_NAME    = ACS3
OBJECT_ID      = 2024-077B
CENTER_NAME    = EARTH
REF_FRAME      = TEME
TIME_SYSTEM    = UTC
MEAN_ELEMENT_THEORY = SGP/SGP4

EPOCH          = 2026-02-25T19:56:21.144192
MEAN_MOTION    = 13.89037996
ECCENTRICITY   = .0051879
INCLINATION    = 97.2125
RA_OF_ASC_NODE = 0.6095
ARG_OF_PERICENTER = 109.8795
MEAN_ANOMALY   = 250.7970

EPHEMERIS_TYPE = 0
CLASSIFICATION_TYPE = U
NORAD_CAT_ID   = 59588
ELEMENT_SET_NO = 999
REV_AT_EPOCH   = 9255
BSTAR          = .18029E-1
MEAN_MOTION_DOT = .22125E-3
MEAN_MOTION_DDOT = 0

CCSDS_OMM_VERS = 2.0
CREATION_DATE  = 
ORIGINATOR     = 

OBJECT_NAME    = SZ-21 MODULE
OBJECT_ID      = 2025-246C
CENTER_NAME    = EARTH
REF_FRAME      = TEME
TIME_SYSTEM    = UTC
MEAN_ELEMENT_THEORY = SGP/SGP4

EPOCH          = 2026-02-25T00:24:03.071808
MEAN_MOTION    = 15.67483837
ECCENTRICITY   = .00014733
INCLINATION    = 41.4748
RA_OF_ASC_NODE = 281.3118
ARG_OF_PERICENTER = 289.6520
MEAN_ANOMALY   = 70.4162

EPHEMERIS_TYPE = 0
CLASSIFICATION_TYPE = U
NORAD_CAT_ID   = 66515
ELEMENT_SET_NO = 999
REV_AT_EPOCH   = 1608
BSTAR          = .2755469E-3
MEAN_MOTION_DOT = .30552E-3
MEAN_MOTION_DDOT = 0

